{"spkid": "50634927", "covariance": {"labels": ["e", "q", "tp", "node", "peri", "i"], "data": [["3.242410301301621E-15", "-4.552794135912266E-15", "4.283913790062597E-13", "-1.065505196092555E-12", "1.055896424445553E-12", "-1.805854636065222E-13"], ["-4.552794135912266E-15", "6.847110344252641E-15", "-6.361291928043583E-13", "1.547862176609716E-12", "-1.555288735305025E-12", "2.550611471070789E-13"], ["4.283913790062597E-13", "-6.361291928043583E-13", "6.690332616799128E-10", "-5.249049097376543E-10", "9.56732967252602E-10", "-1.038348287015921E-10"], ["-1.065505196092555E-12", "1.547862176609716E-12", "-5.249049097376543E-10", "1.262692891284297E-9", "-1.343186447107213E-9", "1.004899313273747E-10"], ["1.055896424445553E-12", "-1.555288735305025E-12", "9.56732967252602E-10", "-1.343186447107213E-9", "1.849274088505508E-9", "-1.143752477926154E-10"], ["-1.805854636065222E-13", "2.550611471070789E-13", "-1.038348287015921E-10", "1.004899313273747E-10", "-1.143752477926154E-10", "1.706948072727438E-10"]], "elements": [{"sigma": 5.69421662856413e-08, "name": "e", "units": null, "value": ".3715770663800005", "title": "eccentricity", "label": "e"}, {"name": "q", "sigma": 8.27472678960015e-08, "value": ".9832430685049146", "title": "perihelion distance", "units": "au", "label": "q"}, {"name": "tp", "sigma": 2.58656772901835e-05, "title": "time of perihelion passage", "value": "2456417.988226143609", "units": "TDB", "label": "tp"}, {"label": "node", "units": "deg", "title": "longitude of the ascending node", "value": "53.39957708613415", "sigma": 3.55343902618899e-05, "name": "om"}, {"sigma": 4.30031869575443e-05, "name": "w", "units": "deg", "value": "186.4027684368155", "title": "argument of perihelion", "label": "peri"}, {"name": "i", "sigma": 1.30650222836681e-05, "units": "deg", "title": "inclination", "value": "14.90304150238564", "label": "i"}], "epoch": "2456466.5"}, "elements": [{"sigma": "5.6887E-8", "name": "e", "units": null, "title": "eccentricity", "value": ".3713823887745957", "label": "e"}, {"label": "a", "name": "a", "sigma": "3.5775E-8", "title": "semi-major axis", "value": "1.564614641487372", "units": "au"}, {"label": "q", "units": "au", "value": ".9835443184200838", "title": "perihelion distance", "name": "q", "sigma": "8.2928E-8"}, {"sigma": "1.3065E-5", "name": "i", "title": "inclination; angle with respect to x-y ecliptic plane", "value": "14.89867899563121", "units": "deg", "label": "i"}, {"label": "node", "title": "longitude of the ascending node", "value": "53.34344151046269", "units": "deg", "sigma": "3.5551E-5", "name": "om"}, {"label": "peri", "name": "w", "sigma": "4.302E-5", "units": "deg", "value": "186.4848010485955", "title": "argument of perihelion"}, {"sigma": "8.5583E-5", "name": "ma", "units": "deg", "title": "mean anomaly", "value": "248.7400979115004", "label": "M"}, {"name": "tp", "sigma": ".00017743", "title": "time of perihelion passage", "value": "2461421.425417573204", "units": "TDB", "label": "tp"}, {"title": "sidereal orbital period", "value": "714.8410957893003", "units": "d", "sigma": "2.4517E-5", "name": "per", "label": "period"}, {"label": "n", "name": "n", "sigma": "1.7272E-8", "value": ".5036084272722201", "title": "mean motion", "units": "deg/d"}, {"value": "2.145684964554659", "title": "aphelion distance", "units": "au", "sigma": "4.9061E-8", "name": "ad", "label": "Q"}], "epoch": "2461200.5"}